{
    "links": {
        "self": "http://www.neowsapp.com/rest/v1/neo/3740024?api_key=iIulBulltgU6a56xZRHN4H3l9WmuAYTsLGpBGhQ2"
    },
    "id": "3740024",
    "neo_reference_id": "3740024",
    "name": "(2016 AW164)",
    "designation": "2016 AW164",
    "nasa_jpl_url": "http://ssd.jpl.nasa.gov/sbdb.cgi?sstr=3740024",
    "absolute_magnitude_h": 23.5,
    "estimated_diameter": {
        "kilometers": {
            "estimated_diameter_min": 0.0530340723,
            "estimated_diameter_max": 0.1185877909
        },
        "meters": {
            "estimated_diameter_min": 53.0340723319,
            "estimated_diameter_max": 118.5877908577
        },
        "miles": {
            "estimated_diameter_min": 0.0329538346,
            "estimated_diameter_max": 0.0736870142
        },
        "feet": {
            "estimated_diameter_min": 173.9963058693,
            "estimated_diameter_max": 389.0675677576
        }
    },
    "is_potentially_hazardous_asteroid": false,
    "close_approach_data": [
        {
            "close_approach_date": "2016-01-11",
            "close_approach_date_full": "2016-Jan-11 08:12",
            "epoch_date_close_approach": 1452499920000,
            "relative_velocity": {
                "kilometers_per_second": "17.9585949031",
                "kilometers_per_hour": "64650.941651146",
                "miles_per_hour": "40171.5809387357"
            },
            "miss_distance": {
                "astronomical": "0.1121652757",
                "lunar": "43.6322922473",
                "kilometers": "16779686.332682759",
                "miles": "10426413.6079057142"
            },
            "orbiting_body": "Earth"
        }
    ],
    "orbital_data": {
        "orbit_id": "4",
        "orbit_determination_date": "2017-04-06 08:29:11",
        "first_observation_date": "2016-01-13",
        "last_observation_date": "2016-01-27",
        "data_arc_in_days": 14,
        "observations_used": 38,
        "orbit_uncertainty": "9",
        "minimum_orbit_intersection": ".1049",
        "jupiter_tisserand_invariant": "4.139",
        "epoch_osculation": "2457401.5",
        "eccentricity": ".3320074593830963",
        "semi_major_axis": "1.596029064310678",
        "inclination": "32.70128658236062",
        "ascending_node_longitude": "113.0515122809655",
        "orbital_period": "736.4777326362931",
        "perihelion_distance": "1.066135509567309",
        "perihelion_argument": "335.5968288717376",
        "aphelion_distance": "2.125922619054046",
        "perihelion_time": "2457375.663625256616",
        "mean_anomaly": "12.62915970904385",
        "mean_motion": ".4888131494639291",
        "equinox": "J2000",
        "orbit_class": {
            "orbit_class_type": "AMO",
            "orbit_class_description": "Near-Earth asteroid orbits similar to that of 1221 Amor",
            "orbit_class_range": "1.017 AU < q (perihelion) < 1.3 AU"
        }
    },
    "is_sentry_object": false
}